[{"OBJECT_NAME":"SHIJIAN-6 02B (SJ-6 02B)","OBJECT_ID":"2006-046B","EPOCH":"2026-03-09T23:09:06.940224","MEAN_MOTION":15.01001333,"ECCENTRICITY":0.00140021,"INCLINATION":97.7065,"RA_OF_ASC_NODE":98.697,"ARG_OF_PERICENTER":42.7506,"MEAN_ANOMALY":317.4805,"EPHEMERIS_TYPE":0,"CLASSIFICATION_TYPE":"U","NORAD_CAT_ID":29506,"ELEMENT_SET_NO":999,"REV_AT_EPOCH":5585,"BSTAR":0.00024683398,"MEAN_MOTION_DOT":3.096e-5,"MEAN_MOTION_DDOT":0},{"OBJECT_NAME":"STARLINK-3093","OBJECT_ID":"2021-082M","EPOCH":"2026-03-09T21:50:30.209568","MEAN_MOTION":14.98330401,"ECCENTRICITY":0.0002789,"INCLINATION":69.9983,"RA_OF_ASC_NODE":293.9108,"ARG_OF_PERICENTER":269.3238,"MEAN_ANOMALY":90.7602,"EPHEMERIS_TYPE":0,"CLASSIFICATION_TYPE":"U","NORAD_CAT_ID":49141,"ELEMENT_SET_NO":999,"REV_AT_EPOCH":24721,"BSTAR":1.7752566e-5,"MEAN_MOTION_DOT":1.19e-6,"MEAN_MOTION_DDOT":0}]
